[{"OBJECT_NAME":"STARLINK-36993","OBJECT_ID":"2026-039J","EPOCH":"2026-03-18T14:00:01.000224","MEAN_MOTION":15.65393709,"ECCENTRICITY":0.00016353,"INCLINATION":43.0001,"RA_OF_ASC_NODE":0.6413,"ARG_OF_PERICENTER":252.4653,"MEAN_ANOMALY":21.669,"EPHEMERIS_TYPE":0,"CLASSIFICATION_TYPE":"U","NORAD_CAT_ID":67994,"ELEMENT_SET_NO":999,"REV_AT_EPOCH":430,"BSTAR":-0.021117412,"MEAN_MOTION_DOT":-0.0191759,"MEAN_MOTION_DDOT":0},{"OBJECT_NAME":"STARLINK-36968","OBJECT_ID":"2026-039K","EPOCH":"2026-03-18T14:00:01.000224","MEAN_MOTION":15.51018309,"ECCENTRICITY":0.00014357,"INCLINATION":43.0001,"RA_OF_ASC_NODE":1.32,"ARG_OF_PERICENTER":243.9141,"MEAN_ANOMALY":116.6247,"EPHEMERIS_TYPE":0,"CLASSIFICATION_TYPE":"U","NORAD_CAT_ID":67995,"ELEMENT_SET_NO":999,"REV_AT_EPOCH":430,"BSTAR":-0.013108558,"MEAN_MOTION_DOT":-0.00723152,"MEAN_MOTION_DDOT":0},{"OBJECT_NAME":"STARLINK-36979","OBJECT_ID":"2026-039L","EPOCH":"2026-03-18T14:00:01.000224","MEAN_MOTION":15.6698896,"ECCENTRICITY":0.00016995,"INCLINATION":43.0003,"RA_OF_ASC_NODE":0.5773,"ARG_OF_PERICENTER":253.8431,"MEAN_ANOMALY":46.1602,"EPHEMERIS_TYPE":0,"CLASSIFICATION_TYPE":"U","NORAD_CAT_ID":67996,"ELEMENT_SET_NO":999,"REV_AT_EPOCH":430,"BSTAR":-0.020080955,"MEAN_MOTION_DOT":-0.0194272,"MEAN_MOTION_DDOT":0},{"OBJECT_NAME":"STARLINK-36994","OBJECT_ID":"2026-039M","EPOCH":"2026-03-18T14:00:01.000224","MEAN_MOTION":15.61058268,"ECCENTRICITY":0.00011831,"INCLINATION":43.0003,"RA_OF_ASC_NODE":0.773,"ARG_OF_PERICENTER":255.0118,"MEAN_ANOMALY":326.1116,"EPHEMERIS_TYPE":0,"CLASSIFICATION_TYPE":"U","NORAD_CAT_ID":67997,"ELEMENT_SET_NO":999,"REV_AT_EPOCH":430,"BSTAR":-0.024930129,"MEAN_MOTION_DOT":-0.01906516,"MEAN_MOTION_DDOT":0},{"OBJECT_NAME":"STARLINK-36988","OBJECT_ID":"2026-039N","EPOCH":"2026-03-18T14:00:01.000224","MEAN_MOTION":15.62089137,"ECCENTRICITY":0.00013376,"INCLINATION":43.0007,"RA_OF_ASC_NODE":0.7395,"ARG_OF_PERICENTER":254.6964,"MEAN_ANOMALY":340.373,"EPHEMERIS_TYPE":0,"CLASSIFICATION_TYPE":"U","NORAD_CAT_ID":67998,"ELEMENT_SET_NO":999,"REV_AT_EPOCH":430,"BSTAR":-0.023827339,"MEAN_MOTION_DOT":-0.01898504,"MEAN_MOTION_DDOT":0},{"OBJECT_NAME":"STARLINK-36926","OBJECT_ID":"2026-039P","EPOCH":"2026-03-18T14:00:01.000224","MEAN_MOTION":15.61243544,"ECCENTRICITY":0.00012224,"INCLINATION":43.0003,"RA_OF_ASC_NODE":0.7541,"ARG_OF_PERICENTER":253.3944,"MEAN_ANOMALY":335.3565,"EPHEMERIS_TYPE":0,"CLASSIFICATION_TYPE":"U","NORAD_CAT_ID":67999,"ELEMENT_SET_NO":999,"REV_AT_EPOCH":430,"BSTAR":-0.024681133,"MEAN_MOTION_DOT":-0.01901834,"MEAN_MOTION_DDOT":0},{"OBJECT_NAME":"STARLINK-36931","OBJECT_ID":"2026-039Q","EPOCH":"2026-03-18T14:00:01.000224","MEAN_MOTION":15.65307369,"ECCENTRICITY":0.00016911,"INCLINATION":43.0003,"RA_OF_ASC_NODE":0.5799,"ARG_OF_PERICENTER":253.7268,"MEAN_ANOMALY":44.7264,"EPHEMERIS_TYPE":0,"CLASSIFICATION_TYPE":"U","NORAD_CAT_ID":68000,"ELEMENT_SET_NO":999,"REV_AT_EPOCH":430,"BSTAR":-0.021351474,"MEAN_MOTION_DOT":-0.01930431,"MEAN_MOTION_DDOT":0},{"OBJECT_NAME":"STARLINK-36903","OBJECT_ID":"2026-039R","EPOCH":"2026-03-18T14:00:01.000224","MEAN_MOTION":15.61121707,"ECCENTRICITY":0.00013602,"INCLINATION":43.0005,"RA_OF_ASC_NODE":0.7378,"ARG_OF_PERICENTER":252.5964,"MEAN_ANOMALY":342.6439,"EPHEMERIS_TYPE":0,"CLASSIFICATION_TYPE":"U","NORAD_CAT_ID":68001,"ELEMENT_SET_NO":999,"REV_AT_EPOCH":430,"BSTAR":-0.024677707,"MEAN_MOTION_DOT":-0.01893707,"MEAN_MOTION_DDOT":0},{"OBJECT_NAME":"STARLINK-36898","OBJECT_ID":"2026-039S","EPOCH":"2026-03-18T14:00:01.000224","MEAN_MOTION":15.6418451,"ECCENTRICITY":0.00016596,"INCLINATION":43.0002,"RA_OF_ASC_NODE":0.5887,"ARG_OF_PERICENTER":254.5071,"MEAN_ANOMALY":40.1484,"EPHEMERIS_TYPE":0,"CLASSIFICATION_TYPE":"U","NORAD_CAT_ID":68002,"ELEMENT_SET_NO":999,"REV_AT_EPOCH":430,"BSTAR":-0.02222012,"MEAN_MOTION_DOT":-0.01921333,"MEAN_MOTION_DDOT":0},{"OBJECT_NAME":"STARLINK-36862","OBJECT_ID":"2026-039T","EPOCH":"2026-03-18T14:00:01.000224","MEAN_MOTION":15.62047115,"ECCENTRICITY":0.00013619,"INCLINATION":42.9999,"RA_OF_ASC_NODE":0.6543,"ARG_OF_PERICENTER":251.9608,"MEAN_ANOMALY":16.6021,"EPHEMERIS_TYPE":0,"CLASSIFICATION_TYPE":"U","NORAD_CAT_ID":68003,"ELEMENT_SET_NO":999,"REV_AT_EPOCH":430,"BSTAR":-0.023820426,"MEAN_MOTION_DOT":-0.0189526,"MEAN_MOTION_DDOT":0},{"OBJECT_NAME":"STARLINK-36888","OBJECT_ID":"2026-039U","EPOCH":"2026-03-18T14:00:01.000224","MEAN_MOTION":15.61717401,"ECCENTRICITY":0.00013456,"INCLINATION":42.9995,"RA_OF_ASC_NODE":0.7014,"ARG_OF_PERICENTER":250.6113,"MEAN_ANOMALY":359.4402,"EPHEMERIS_TYPE":0,"CLASSIFICATION_TYPE":"U","NORAD_CAT_ID":68004,"ELEMENT_SET_NO":999,"REV_AT_EPOCH":430,"BSTAR":-0.024086441,"MEAN_MOTION_DOT":-0.01892147,"MEAN_MOTION_DDOT":0},{"OBJECT_NAME":"STARLINK-36910","OBJECT_ID":"2026-039V","EPOCH":"2026-03-18T14:00:01.000224","MEAN_MOTION":15.65360506,"ECCENTRICITY":0.0001722,"INCLINATION":43,"RA_OF_ASC_NODE":0.535,"ARG_OF_PERICENTER":250.274,"MEAN_ANOMALY":66.1367,"EPHEMERIS_TYPE":0,"CLASSIFICATION_TYPE":"U","NORAD_CAT_ID":68005,"ELEMENT_SET_NO":999,"REV_AT_EPOCH":430,"BSTAR":-0.021116795,"MEAN_MOTION_DOT":-0.01915327,"MEAN_MOTION_DDOT":0},{"OBJECT_NAME":"STARLINK-36889","OBJECT_ID":"2026-039W","EPOCH":"2026-03-18T14:00:01.000224","MEAN_MOTION":15.60089487,"ECCENTRICITY":0.00013526,"INCLINATION":43.0004,"RA_OF_ASC_NODE":0.7312,"ARG_OF_PERICENTER":254.1581,"MEAN_ANOMALY":343.3967,"EPHEMERIS_TYPE":0,"CLASSIFICATION_TYPE":"U","NORAD_CAT_ID":68006,"ELEMENT_SET_NO":999,"REV_AT_EPOCH":430,"BSTAR":-0.025704731,"MEAN_MOTION_DOT":-0.01894751,"MEAN_MOTION_DDOT":0},{"OBJECT_NAME":"STARLINK-36592","OBJECT_ID":"2026-039X","EPOCH":"2026-03-18T14:00:01.000224","MEAN_MOTION":15.64481404,"ECCENTRICITY":0.00017438,"INCLINATION":43.0002,"RA_OF_ASC_NODE":0.5345,"ARG_OF_PERICENTER":253.3609,"MEAN_ANOMALY":62.8445,"EPHEMERIS_TYPE":0,"CLASSIFICATION_TYPE":"U","NORAD_CAT_ID":68007,"ELEMENT_SET_NO":999,"REV_AT_EPOCH":430,"BSTAR":-0.021983299,"MEAN_MOTION_DOT":-0.01923428,"MEAN_MOTION_DDOT":0},{"OBJECT_NAME":"STARLINK-36911","OBJECT_ID":"2026-039Y","EPOCH":"2026-03-18T14:00:01.000224","MEAN_MOTION":15.62978682,"ECCENTRICITY":0.00016024,"INCLINATION":43,"RA_OF_ASC_NODE":0.5825,"ARG_OF_PERICENTER":254.9903,"MEAN_ANOMALY":41.841,"EPHEMERIS_TYPE":0,"CLASSIFICATION_TYPE":"U","NORAD_CAT_ID":68008,"ELEMENT_SET_NO":999,"REV_AT_EPOCH":430,"BSTAR":-0.023291096,"MEAN_MOTION_DOT":-0.01919589,"MEAN_MOTION_DDOT":0},{"OBJECT_NAME":"STARLINK-36956","OBJECT_ID":"2026-039Z","EPOCH":"2026-03-18T14:00:01.000224","MEAN_MOTION":15.61815155,"ECCENTRICITY":0.00015444,"INCLINATION":42.9996,"RA_OF_ASC_NODE":0.621,"ARG_OF_PERICENTER":251.2692,"MEAN_ANOMALY":30.3896,"EPHEMERIS_TYPE":0,"CLASSIFICATION_TYPE":"U","NORAD_CAT_ID":68009,"ELEMENT_SET_NO":999,"REV_AT_EPOCH":430,"BSTAR":-0.023992146,"MEAN_MOTION_DOT":-0.0189214,"MEAN_MOTION_DDOT":0}]
