STARLINK-36993          
1 67994U 26039J   26077.58334491 -.01917590  00000+0 -21117-1 0  9990
2 67994  43.0001   0.6413 0001635 252.4653  21.6690 15.65393709  4300
STARLINK-36968          
1 67995U 26039K   26077.58334491 -.00723152  00000+0 -13109-1 0  9991
2 67995  43.0001   1.3200 0001435 243.9141 116.6247 15.51018309  4306
STARLINK-36979          
1 67996U 26039L   26077.58334491 -.01942720  00000+0 -20081-1 0  9994
2 67996  43.0003   0.5773 0001699 253.8431  46.1602 15.66988960  4306
STARLINK-36994          
1 67997U 26039M   26077.58334491 -.01906516  00000+0 -24930-1 0  9995
2 67997  43.0003   0.7730 0001183 255.0118 326.1116 15.61058268  4301
STARLINK-36988          
1 67998U 26039N   26077.58334491 -.01898504  00000+0 -23827-1 0  9997
2 67998  43.0007   0.7395 0001337 254.6964 340.3730 15.62089137  4308
STARLINK-36926          
1 67999U 26039P   26077.58334491 -.01901834  00000+0 -24681-1 0  9998
2 67999  43.0003   0.7541 0001222 253.3944 335.3565 15.61243544  4308
STARLINK-36931          
1 68000U 26039Q   26077.58334491 -.01930431  00000+0 -21351-1 0  9998
2 68000  43.0003   0.5799 0001691 253.7268  44.7264 15.65307369  4305
STARLINK-36903          
1 68001U 26039R   26077.58334491 -.01893707  00000+0 -24678-1 0  9998
2 68001  43.0005   0.7378 0001360 252.5964 342.6439 15.61121707  4306
STARLINK-36898          
1 68002U 26039S   26077.58334491 -.01921333  00000+0 -22220-1 0  9997
2 68002  43.0002   0.5887 0001659 254.5071  40.1484 15.64184510  4303
STARLINK-36862          
1 68003U 26039T   26077.58334491 -.01895260  00000+0 -23820-1 0  9994
2 68003  42.9999   0.6543 0001361 251.9608  16.6021 15.62047115  4306
STARLINK-36888          
1 68004U 26039U   26077.58334491 -.01892147  00000+0 -24086-1 0  9991
2 68004  42.9995   0.7014 0001345 250.6113 359.4402 15.61717401  4308
STARLINK-36910          
1 68005U 26039V   26077.58334491 -.01915327  00000+0 -21117-1 0  9990
2 68005  43.0000   0.5350 0001722 250.2740  66.1367 15.65360506  4306
STARLINK-36889          
1 68006U 26039W   26077.58334491 -.01894751  00000+0 -25705-1 0  9995
2 68006  43.0004   0.7312 0001352 254.1581 343.3967 15.60089487  4303
STARLINK-36592          
1 68007U 26039X   26077.58334491 -.01923428  00000+0 -21983-1 0  9994
2 68007  43.0002   0.5345 0001743 253.3609  62.8445 15.64481404  4305
STARLINK-36911          
1 68008U 26039Y   26077.58334491 -.01919589  00000+0 -23291-1 0  9992
2 68008  43.0000   0.5825 0001602 254.9903  41.8410 15.62978682  4301
STARLINK-36956          
1 68009U 26039Z   26077.58334491 -.01892140  00000+0 -23992-1 0  9994
2 68009  42.9996   0.6210 0001544 251.2692  30.3896 15.61815155  4308
